[{"OBJECT_NAME":"STARLINK-31460","OBJECT_ID":"2024-036L","EPOCH":"2026-02-01T20:20:00.763584","MEAN_MOTION":15.30161252,"ECCENTRICITY":0.00025768,"INCLINATION":53.1587,"RA_OF_ASC_NODE":244.7543,"ARG_OF_PERICENTER":162.1749,"MEAN_ANOMALY":197.9343,"EPHEMERIS_TYPE":0,"CLASSIFICATION_TYPE":"U","NORAD_CAT_ID":59008,"ELEMENT_SET_NO":999,"REV_AT_EPOCH":10983,"BSTAR":-0.00010770272,"MEAN_MOTION_DOT":-3.545e-5,"MEAN_MOTION_DDOT":0},{"OBJECT_NAME":"STARLINK-31488","OBJECT_ID":"2024-036M","EPOCH":"2026-02-01T19:31:21.236736","MEAN_MOTION":15.30193562,"ECCENTRICITY":0.00012073,"INCLINATION":53.1588,"RA_OF_ASC_NODE":244.5407,"ARG_OF_PERICENTER":88.2869,"MEAN_ANOMALY":271.8271,"EPHEMERIS_TYPE":0,"CLASSIFICATION_TYPE":"U","NORAD_CAT_ID":59009,"ELEMENT_SET_NO":999,"REV_AT_EPOCH":10983,"BSTAR":1.6447461e-5,"MEAN_MOTION_DOT":1.28e-6,"MEAN_MOTION_DDOT":0},{"OBJECT_NAME":"STARLINK-31528","OBJECT_ID":"2024-036N","EPOCH":"2026-01-28T22:45:20.038176","MEAN_MOTION":15.30651111,"ECCENTRICITY":0.00019302,"INCLINATION":53.1572,"RA_OF_ASC_NODE":263.0777,"ARG_OF_PERICENTER":101.5154,"MEAN_ANOMALY":258.6063,"EPHEMERIS_TYPE":0,"CLASSIFICATION_TYPE":"U","NORAD_CAT_ID":59010,"ELEMENT_SET_NO":999,"REV_AT_EPOCH":10923,"BSTAR":0.00086342856,"MEAN_MOTION_DOT":0.00025661,"MEAN_MOTION_DDOT":0},{"OBJECT_NAME":"STARLINK-31491","OBJECT_ID":"2024-036P","EPOCH":"2026-02-01T22:25:56.820288","MEAN_MOTION":15.30199559,"ECCENTRICITY":0.00012319,"INCLINATION":53.1597,"RA_OF_ASC_NODE":244.5842,"ARG_OF_PERICENTER":90.0917,"MEAN_ANOMALY":270.0225,"EPHEMERIS_TYPE":0,"CLASSIFICATION_TYPE":"U","NORAD_CAT_ID":59011,"ELEMENT_SET_NO":999,"REV_AT_EPOCH":10984,"BSTAR":7.5289219e-5,"MEAN_MOTION_DOT":1.871e-5,"MEAN_MOTION_DDOT":0},{"OBJECT_NAME":"STARLINK-31465","OBJECT_ID":"2024-036Q","EPOCH":"2026-02-01T22:18:20.560032","MEAN_MOTION":15.30194723,"ECCENTRICITY":0.00012987,"INCLINATION":53.1593,"RA_OF_ASC_NODE":244.5491,"ARG_OF_PERICENTER":106.3807,"MEAN_ANOMALY":253.7337,"EPHEMERIS_TYPE":0,"CLASSIFICATION_TYPE":"U","NORAD_CAT_ID":59012,"ELEMENT_SET_NO":999,"REV_AT_EPOCH":10984,"BSTAR":4.7646591e-5,"MEAN_MOTION_DOT":1.052e-5,"MEAN_MOTION_DDOT":0},{"OBJECT_NAME":"STARLINK-31389","OBJECT_ID":"2024-036R","EPOCH":"2026-01-29T22:15:02.327328","MEAN_MOTION":15.31529584,"ECCENTRICITY":0.00078385,"INCLINATION":53.159,"RA_OF_ASC_NODE":258.5203,"ARG_OF_PERICENTER":197.7729,"MEAN_ANOMALY":162.2999,"EPHEMERIS_TYPE":0,"CLASSIFICATION_TYPE":"U","NORAD_CAT_ID":59013,"ELEMENT_SET_NO":999,"REV_AT_EPOCH":10939,"BSTAR":0.0036609082,"MEAN_MOTION_DOT":0.00114465,"MEAN_MOTION_DDOT":0},{"OBJECT_NAME":"STARLINK-31454","OBJECT_ID":"2024-036S","EPOCH":"2026-02-01T20:39:44.035776","MEAN_MOTION":15.30197098,"ECCENTRICITY":0.00011498,"INCLINATION":53.1574,"RA_OF_ASC_NODE":244.8323,"ARG_OF_PERICENTER":78.0797,"MEAN_ANOMALY":282.0333,"EPHEMERIS_TYPE":0,"CLASSIFICATION_TYPE":"U","NORAD_CAT_ID":59014,"ELEMENT_SET_NO":999,"REV_AT_EPOCH":10983,"BSTAR":8.295529e-5,"MEAN_MOTION_DOT":2.098e-5,"MEAN_MOTION_DDOT":0},{"OBJECT_NAME":"STARLINK-31521","OBJECT_ID":"2024-036T","EPOCH":"2026-02-01T20:38:12.644448","MEAN_MOTION":15.30198172,"ECCENTRICITY":0.00010985,"INCLINATION":53.1589,"RA_OF_ASC_NODE":244.8264,"ARG_OF_PERICENTER":79.9797,"MEAN_ANOMALY":280.1328,"EPHEMERIS_TYPE":0,"CLASSIFICATION_TYPE":"U","NORAD_CAT_ID":59015,"ELEMENT_SET_NO":999,"REV_AT_EPOCH":10983,"BSTAR":1.7150613e-5,"MEAN_MOTION_DOT":1.49e-6,"MEAN_MOTION_DDOT":0},{"OBJECT_NAME":"STARLINK-31526","OBJECT_ID":"2024-036U","EPOCH":"2026-02-01T22:12:10.911456","MEAN_MOTION":15.30194453,"ECCENTRICITY":9.901e-5,"INCLINATION":53.1598,"RA_OF_ASC_NODE":218.9084,"ARG_OF_PERICENTER":79.2267,"MEAN_ANOMALY":280.8845,"EPHEMERIS_TYPE":0,"CLASSIFICATION_TYPE":"U","NORAD_CAT_ID":59016,"ELEMENT_SET_NO":999,"REV_AT_EPOCH":11020,"BSTAR":6.0835325e-5,"MEAN_MOTION_DOT":1.443e-5,"MEAN_MOTION_DDOT":0},{"OBJECT_NAME":"STARLINK-31406","OBJECT_ID":"2024-036V","EPOCH":"2026-02-01T22:17:23.555904","MEAN_MOTION":15.30197878,"ECCENTRICITY":0.00014454,"INCLINATION":53.1578,"RA_OF_ASC_NODE":231.0611,"ARG_OF_PERICENTER":95.4115,"MEAN_ANOMALY":264.7051,"EPHEMERIS_TYPE":0,"CLASSIFICATION_TYPE":"U","NORAD_CAT_ID":59017,"ELEMENT_SET_NO":999,"REV_AT_EPOCH":11003,"BSTAR":0.00012568502,"MEAN_MOTION_DOT":3.365e-5,"MEAN_MOTION_DDOT":0},{"OBJECT_NAME":"STARLINK-31527","OBJECT_ID":"2024-036W","EPOCH":"2026-02-01T20:24:32.236704","MEAN_MOTION":15.3021965,"ECCENTRICITY":5.88e-5,"INCLINATION":53.1573,"RA_OF_ASC_NODE":244.775,"ARG_OF_PERICENTER":112.8594,"MEAN_ANOMALY":247.2469,"EPHEMERIS_TYPE":0,"CLASSIFICATION_TYPE":"U","NORAD_CAT_ID":59018,"ELEMENT_SET_NO":999,"REV_AT_EPOCH":10983,"BSTAR":0.00013359345,"MEAN_MOTION_DOT":3.602e-5,"MEAN_MOTION_DDOT":0},{"OBJECT_NAME":"STARLINK-31436","OBJECT_ID":"2024-036X","EPOCH":"2026-02-01T22:27:29.155968","MEAN_MOTION":15.30195653,"ECCENTRICITY":0.00011304,"INCLINATION":53.1573,"RA_OF_ASC_NODE":244.588,"ARG_OF_PERICENTER":104.8063,"MEAN_ANOMALY":255.3063,"EPHEMERIS_TYPE":0,"CLASSIFICATION_TYPE":"U","NORAD_CAT_ID":59019,"ELEMENT_SET_NO":999,"REV_AT_EPOCH":10984,"BSTAR":0.00018203343,"MEAN_MOTION_DOT":5.035e-5,"MEAN_MOTION_DDOT":0},{"OBJECT_NAME":"STARLINK-30996","OBJECT_ID":"2024-038A","EPOCH":"2026-02-01T21:30:34.696224","MEAN_MOTION":15.27582446,"ECCENTRICITY":8.893e-5,"INCLINATION":42.9953,"RA_OF_ASC_NODE":229.1937,"ARG_OF_PERICENTER":242.5578,"MEAN_ANOMALY":117.5183,"EPHEMERIS_TYPE":0,"CLASSIFICATION_TYPE":"U","NORAD_CAT_ID":59023,"ELEMENT_SET_NO":999,"REV_AT_EPOCH":11065,"BSTAR":2.4441965e-5,"MEAN_MOTION_DOT":4.11e-6,"MEAN_MOTION_DDOT":0},{"OBJECT_NAME":"STARLINK-31006","OBJECT_ID":"2024-038B","EPOCH":"2026-02-01T16:20:26.412000","MEAN_MOTION":15.27589666,"ECCENTRICITY":0.0001248,"INCLINATION":42.9974,"RA_OF_ASC_NODE":179.9641,"ARG_OF_PERICENTER":267.4729,"MEAN_ANOMALY":92.598,"EPHEMERIS_TYPE":0,"CLASSIFICATION_TYPE":"U","NORAD_CAT_ID":59024,"ELEMENT_SET_NO":999,"REV_AT_EPOCH":10983,"BSTAR":7.8838807e-5,"MEAN_MOTION_DOT":1.909e-5,"MEAN_MOTION_DDOT":0},{"OBJECT_NAME":"STARLINK-31178","OBJECT_ID":"2024-038C","EPOCH":"2026-02-01T21:45:22.965984","MEAN_MOTION":15.27578979,"ECCENTRICITY":0.00012884,"INCLINATION":42.9995,"RA_OF_ASC_NODE":229.2715,"ARG_OF_PERICENTER":277.0676,"MEAN_ANOMALY":83.0029,"EPHEMERIS_TYPE":0,"CLASSIFICATION_TYPE":"U","NORAD_CAT_ID":59025,"ELEMENT_SET_NO":999,"REV_AT_EPOCH":10917,"BSTAR":5.7956093e-5,"MEAN_MOTION_DOT":1.333e-5,"MEAN_MOTION_DDOT":0},{"OBJECT_NAME":"STARLINK-30863","OBJECT_ID":"2024-038E","EPOCH":"2026-02-01T22:16:51.166272","MEAN_MOTION":15.27580199,"ECCENTRICITY":0.00011837,"INCLINATION":43.004,"RA_OF_ASC_NODE":229.4184,"ARG_OF_PERICENTER":287.3053,"MEAN_ANOMALY":72.7669,"EPHEMERIS_TYPE":0,"CLASSIFICATION_TYPE":"U","NORAD_CAT_ID":59027,"ELEMENT_SET_NO":999,"REV_AT_EPOCH":10917,"BSTAR":0.00020292291,"MEAN_MOTION_DOT":5.326e-5,"MEAN_MOTION_DDOT":0}]
