STARLINK-31460          
1 59008U 24036L   26032.84723106 -.00003545  00000+0 -10770-3 0  9997
2 59008  53.1587 244.7543 0002576 162.1749 197.9343 15.30161252109835
STARLINK-31488          
1 59009U 24036M   26032.81344024  .00000128  00000+0  16447-4 0  9993
2 59009  53.1588 244.5407 0001207  88.2869 271.8271 15.30193562109836
STARLINK-31528          
1 59010U 24036N   26028.94814859  .00025661  00000+0  86343-3 0  9992
2 59010  53.1572 263.0777 0001930 101.5154 258.6063 15.30651111109231
STARLINK-31491          
1 59011U 24036P   26032.93468542  .00001871  00000+0  75289-4 0  9996
2 59011  53.1597 244.5842 0001231  90.0917 270.0225 15.30199559109847
STARLINK-31465          
1 59012U 24036Q   26032.92940463  .00001052  00000+0  47647-4 0  9991
2 59012  53.1593 244.5491 0001298 106.3807 253.7337 15.30194723109846
STARLINK-31389          
1 59013U 24036R   26029.92711027  .00114465  00000+0  36609-2 0  9997
2 59013  53.1590 258.5203 0007838 197.7729 162.2999 15.31529584109399
STARLINK-31454          
1 59014U 24036S   26032.86092634  .00002098  00000+0  82955-4 0  9996
2 59014  53.1574 244.8323 0001149  78.0797 282.0333 15.30197098109830
STARLINK-31521          
1 59015U 24036T   26032.85986857  .00000149  00000+0  17151-4 0  9996
2 59015  53.1589 244.8264 0001098  79.9797 280.1328 15.30198172109831
STARLINK-31526          
1 59016U 24036U   26032.92512629  .00001443  00000+0  60835-4 0  9992
2 59016  53.1598 218.9084 0000990  79.2267 280.8845 15.30194453110201
STARLINK-31406          
1 59017U 24036V   26032.92874486  .00003365  00000+0  12569-3 0  9990
2 59017  53.1578 231.0611 0001445  95.4115 264.7051 15.30197878110035
STARLINK-31527          
1 59018U 24036W   26032.85037311  .00003602  00000+0  13359-3 0  9993
2 59018  53.1573 244.7750 0000588 112.8594 247.2469 15.30219650109836
STARLINK-31436          
1 59019U 24036X   26032.93575412  .00005035  00000+0  18203-3 0  9997
2 59019  53.1573 244.5880 0001130 104.8063 255.3063 15.30195653109842
STARLINK-30996          
1 59023U 24038A   26032.89623491  .00000411  00000+0  24442-4 0  9996
2 59023  42.9953 229.1937 0000889 242.5578 117.5183 15.27582446110657
STARLINK-31006          
1 59024U 24038B   26032.68086125  .00001909  00000+0  78839-4 0  9993
2 59024  42.9974 179.9641 0001248 267.4729  92.5980 15.27589666109835
STARLINK-31178          
1 59025U 24038C   26032.90651581  .00001333  00000+0  57956-4 0  9991
2 59025  42.9995 229.2715 0001288 277.0676  83.0029 15.27578979109173
STARLINK-30863          
1 59027U 24038E   26032.92836998  .00005326  00000+0  20292-3 0  9990
2 59027  43.0040 229.4184 0001183 287.3053  72.7669 15.27580199109179
